[
    {
        "Altitude(m)": 715046.254579529,
        "Argument of Periapsis(deg)": 0.004556048474650827,
        "Eccentricity": 0.0,
        "Inclination(deg)": 45.0,
        "Latitude(deg)": -38.30447932897341,
        "Longitude(deg)": -122.07096387303882,
        "Mean Anomaly(deg)": 299.15878665899237,
        "RAAN(deg)": 29.995699223416718,
        "Satellite Name": "Constellation 1 150",
        "Satellite Number": 150,
        "Semi-Major Axis(m)": 7083131.272910544,
        "Time(s)": 76
    },
    {
        "Altitude(m)": 715035.28035146,
        "Argument of Periapsis(deg)": 0.004615996480896233,
        "Eccentricity": 0.0,
        "Inclination(deg)": 45.0,
        "Latitude(deg)": -38.2778848678771,
        "Longitude(deg)": -122.0058465618054,
        "Mean Anomaly(deg)": 299.21948779924224,
        "RAAN(deg)": 29.995642634251144,
        "Satellite Name": "Constellation 1 150",
        "Satellite Number": 150,
        "Semi-Major Axis(m)": 7083131.272910544,
        "Time(s)": 77
    },
    {
        "Altitude(m)": 715024.2901396349,
        "Argument of Periapsis(deg)": 0.004675944487141638,
        "Eccentricity": 0.0,
        "Inclination(deg)": 45.0,
        "Latitude(deg)": -38.25124944347593,
        "Longitude(deg)": -121.94077963122194,
        "Mean Anomaly(deg)": 299.2801889394921,
        "RAAN(deg)": 29.995586045085574,
        "Satellite Name": "Constellation 1 150",
        "Satellite Number": 150,
        "Semi-Major Axis(m)": 7083131.272910544,
        "Time(s)": 78
    },
    {
        "Altitude(m)": 715013.2839839327,
        "Argument of Periapsis(deg)": 0.004735892493387044,
        "Eccentricity": 0.0,
        "Inclination(deg)": 45.0,
        "Latitude(deg)": -38.224573123603165,
        "Longitude(deg)": -121.87576307356136,
        "Mean Anomaly(deg)": 299.34089007974205,
        "RAAN(deg)": 29.995529455920007,
        "Satellite Name": "Constellation 1 150",
        "Satellite Number": 150,
        "Semi-Major Axis(m)": 7083131.272910544,
        "Time(s)": 79
    },
    {
        "Altitude(m)": 715002.261924274,
        "Argument of Periapsis(deg)": 0.004795840499632449,
        "Eccentricity": 0.0,
        "Inclination(deg)": 45.0,
        "Latitude(deg)": -38.19785597606295,
        "Longitude(deg)": -121.81079688074539,
        "Mean Anomaly(deg)": 299.401591219992,
        "RAAN(deg)": 29.99547286675444,
        "Satellite Name": "Constellation 1 150",
        "Satellite Number": 150,
        "Semi-Major Axis(m)": 7083131.272910544,
        "Time(s)": 80
    },
    {
        "Altitude(m)": 714991.224000654,
        "Argument of Periapsis(deg)": 0.004855788505877855,
        "Eccentricity": 0.0,
        "Inclination(deg)": 45.0,
        "Latitude(deg)": -38.17109806862977,
        "Longitude(deg)": -121.74588104434524,
        "Mean Anomaly(deg)": 299.4622923602418,
        "RAAN(deg)": 29.995416277588866,
        "Satellite Name": "Constellation 1 150",
        "Satellite Number": 150,
        "Semi-Major Axis(m)": 7083131.272910544,
        "Time(s)": 81
    },
    {
        "Altitude(m)": 714980.1702531091,
        "Argument of Periapsis(deg)": 0.00491573651212326,
        "Eccentricity": 0.0,
        "Inclination(deg)": 45.0,
        "Latitude(deg)": -38.14429946904781,
        "Longitude(deg)": -121.68101572368045,
        "Mean Anomaly(deg)": 299.52299350049174,
        "RAAN(deg)": 29.995359688423303,
        "Satellite Name": "Constellation 1 150",
        "Satellite Number": 150,
        "Semi-Major Axis(m)": 7083131.272910544,
        "Time(s)": 82
    },
    {
        "Altitude(m)": 714969.100721736,
        "Argument of Periapsis(deg)": 0.004975684518368666,
        "Eccentricity": 0.0,
        "Inclination(deg)": 45.0,
        "Latitude(deg)": -38.11746024503134,
        "Longitude(deg)": -121.6162005734316,
        "Mean Anomaly(deg)": 299.58369464074167,
        "RAAN(deg)": 29.99530309925773,
        "Satellite Name": "Constellation 1 150",
        "Satellite Number": 150,
        "Semi-Major Axis(m)": 7083131.272910544,
        "Time(s)": 83
    },
    {
        "Altitude(m)": 714958.0154466742,
        "Argument of Periapsis(deg)": 0.005035632524614072,
        "Eccentricity": 0.0,
        "Inclination(deg)": 45.0,
        "Latitude(deg)": -38.09058046426325,
        "Longitude(deg)": -121.55143575222522,
        "Mean Anomaly(deg)": 299.64439578099154,
        "RAAN(deg)": 29.99524651009216,
        "Satellite Name": "Constellation 1 150",
        "Satellite Number": 150,
        "Semi-Major Axis(m)": 7083131.272910544,
        "Time(s)": 84
    },
    {
        "Altitude(m)": 714946.9144681367,
        "Argument of Periapsis(deg)": 0.0050955805308594785,
        "Eccentricity": 0.0,
        "Inclination(deg)": 45.0,
        "Latitude(deg)": -38.063660194395204,
        "Longitude(deg)": -121.48672125024602,
        "Mean Anomaly(deg)": 299.7050969212414,
        "RAAN(deg)": 29.995189920926585,
        "Satellite Name": "Constellation 1 150",
        "Satellite Number": 150,
        "Semi-Major Axis(m)": 7083131.272910544,
        "Time(s)": 85
    },
    {
        "Altitude(m)": 714935.7978263686,
        "Argument of Periapsis(deg)": 0.005155528537104883,
        "Eccentricity": 0.0,
        "Inclination(deg)": 45.0,
        "Latitude(deg)": -38.036699503047046,
        "Longitude(deg)": -121.42205705733535,
        "Mean Anomaly(deg)": 299.7657980614913,
        "RAAN(deg)": 29.99513333176102,
        "Satellite Name": "Constellation 1 150",
        "Satellite Number": 150,
        "Semi-Major Axis(m)": 7083131.272910544,
        "Time(s)": 86
    },
    {
        "Altitude(m)": 714924.6655616818,
        "Argument of Periapsis(deg)": 0.0052154765433502885,
        "Eccentricity": 0.0,
        "Inclination(deg)": 45.0,
        "Latitude(deg)": -38.00969845780648,
        "Longitude(deg)": -121.35744316299302,
        "Mean Anomaly(deg)": 299.8264992017413,
        "RAAN(deg)": 29.995076742595447,
        "Satellite Name": "Constellation 1 150",
        "Satellite Number": 150,
        "Semi-Major Axis(m)": 7083131.272910544,
        "Time(s)": 87
    },
    {
        "Altitude(m)": 714913.5177144406,
        "Argument of Periapsis(deg)": 0.005275424549595694,
        "Eccentricity": 0.0,
        "Inclination(deg)": 45.0,
        "Latitude(deg)": -37.98265712622876,
        "Longitude(deg)": -121.2928795563791,
        "Mean Anomaly(deg)": 299.88720034199116,
        "RAAN(deg)": 29.99502015342988,
        "Satellite Name": "Constellation 1 150",
        "Satellite Number": 150,
        "Semi-Major Axis(m)": 7083131.272910544,
        "Time(s)": 88
    },
    {
        "Altitude(m)": 714902.3543250528,
        "Argument of Periapsis(deg)": 0.0053353725558411,
        "Eccentricity": 0.0,
        "Inclination(deg)": 45.0,
        "Latitude(deg)": -37.95557557583577,
        "Longitude(deg)": -121.22836639441168,
        "Mean Anomaly(deg)": 299.94790148224104,
        "RAAN(deg)": 29.99496356426431,
        "Satellite Name": "Constellation 1 150",
        "Satellite Number": 150,
        "Semi-Major Axis(m)": 7083131.272910544,
        "Time(s)": 89
    },
    {
        "Altitude(m)": 714891.1754339958,
        "Argument of Periapsis(deg)": 0.005395320562086505,
        "Eccentricity": 0.0,
        "Inclination(deg)": 45.0,
        "Latitude(deg)": -37.928453874116556,
        "Longitude(deg)": -121.16390332937978,
        "Mean Anomaly(deg)": 300.0086026224909,
        "RAAN(deg)": 29.994906975098743,
        "Satellite Name": "Constellation 1 150",
        "Satellite Number": 150,
        "Semi-Major Axis(m)": 7083131.272910544,
        "Time(s)": 90
    },
    {
        "Altitude(m)": 714879.9810817828,
        "Argument of Periapsis(deg)": 0.00545526856833191,
        "Eccentricity": 0.0,
        "Inclination(deg)": 45.0,
        "Latitude(deg)": -37.90129208852578,
        "Longitude(deg)": -121.09949051752812,
        "Mean Anomaly(deg)": 300.0693037627409,
        "RAAN(deg)": 29.99485038593317,
        "Satellite Name": "Constellation 1 150",
        "Satellite Number": 150,
        "Semi-Major Axis(m)": 7083131.272910544,
        "Time(s)": 91
    },
    {
        "Altitude(m)": 714868.7713089834,
        "Argument of Periapsis(deg)": 0.005515216574577317,
        "Eccentricity": 0.0,
        "Inclination(deg)": 45.0,
        "Latitude(deg)": -37.87409028648416,
        "Longitude(deg)": -121.03512794667022,
        "Mean Anomaly(deg)": 300.1300049029908,
        "RAAN(deg)": 29.994793796767606,
        "Satellite Name": "Constellation 1 150",
        "Satellite Number": 150,
        "Semi-Major Axis(m)": 7083131.272910544,
        "Time(s)": 92
    },
    {
        "Altitude(m)": 714857.5461562288,
        "Argument of Periapsis(deg)": 0.005575164580822722,
        "Eccentricity": 0.0,
        "Inclination(deg)": 45.0,
        "Latitude(deg)": -37.84684853537769,
        "Longitude(deg)": -120.97081560428597,
        "Mean Anomaly(deg)": 300.1907060432406,
        "RAAN(deg)": 29.994737207602032,
        "Satellite Name": "Constellation 1 150",
        "Satellite Number": 150,
        "Semi-Major Axis(m)": 7083131.272910544,
        "Time(s)": 93
    },
    {
        "Altitude(m)": 714846.305664192,
        "Argument of Periapsis(deg)": 0.005635112587068129,
        "Eccentricity": 0.0,
        "Inclination(deg)": 45.0,
        "Latitude(deg)": -37.8195669025573,
        "Longitude(deg)": -120.90655347752386,
        "Mean Anomaly(deg)": 300.2514071834905,
        "RAAN(deg)": 29.994680618436465,
        "Satellite Name": "Constellation 1 150",
        "Satellite Number": 150,
        "Semi-Major Axis(m)": 7083131.272910544,
        "Time(s)": 94
    }
]